[{"OBJECT_NAME":"STARLINK-36277","OBJECT_ID":"2026-057M","EPOCH":"2026-03-31T06:00:02.000160","MEAN_MOTION":15.97157187,"ECCENTRICITY":0.00016653,"INCLINATION":97.2775,"RA_OF_ASC_NODE":213.592,"ARG_OF_PERICENTER":56.1223,"MEAN_ANOMALY":64.8219,"EPHEMERIS_TYPE":0,"CLASSIFICATION_TYPE":"U","NORAD_CAT_ID":68305,"ELEMENT_SET_NO":999,"REV_AT_EPOCH":283,"BSTAR":-0.0031592794,"MEAN_MOTION_DOT":-0.01359028,"MEAN_MOTION_DDOT":0.00056053938},{"OBJECT_NAME":"STARLINK-36307","OBJECT_ID":"2026-057N","EPOCH":"2026-03-31T06:00:02.000160","MEAN_MOTION":15.97074107,"ECCENTRICITY":0.00015215,"INCLINATION":97.278,"RA_OF_ASC_NODE":213.5905,"ARG_OF_PERICENTER":54.5941,"MEAN_ANOMALY":62.2011,"EPHEMERIS_TYPE":0,"CLASSIFICATION_TYPE":"U","NORAD_CAT_ID":68306,"ELEMENT_SET_NO":999,"REV_AT_EPOCH":277,"BSTAR":-0.0031487563,"MEAN_MOTION_DOT":-0.0134846,"MEAN_MOTION_DDOT":0.00055200933},{"OBJECT_NAME":"STARLINK-36264","OBJECT_ID":"2026-057P","EPOCH":"2026-03-31T06:00:02.000160","MEAN_MOTION":15.97243061,"ECCENTRICITY":0.00016962,"INCLINATION":97.2777,"RA_OF_ASC_NODE":213.5941,"ARG_OF_PERICENTER":56.2439,"MEAN_ANOMALY":69.1118,"EPHEMERIS_TYPE":0,"CLASSIFICATION_TYPE":"U","NORAD_CAT_ID":68307,"ELEMENT_SET_NO":999,"REV_AT_EPOCH":283,"BSTAR":-0.0031601239,"MEAN_MOTION_DOT":-0.01365713,"MEAN_MOTION_DDOT":0.00056617364},{"OBJECT_NAME":"STARLINK-37138","OBJECT_ID":"2026-057Q","EPOCH":"2026-03-31T06:00:02.000160","MEAN_MOTION":15.97327935,"ECCENTRICITY":0.00016185,"INCLINATION":97.2771,"RA_OF_ASC_NODE":213.5936,"ARG_OF_PERICENTER":53.9187,"MEAN_ANOMALY":74.1579,"EPHEMERIS_TYPE":0,"CLASSIFICATION_TYPE":"U","NORAD_CAT_ID":68308,"ELEMENT_SET_NO":999,"REV_AT_EPOCH":250,"BSTAR":-0.003125021,"MEAN_MOTION_DOT":-0.01356893,"MEAN_MOTION_DDOT":0.00055993717},{"OBJECT_NAME":"STARLINK-37149","OBJECT_ID":"2026-057R","EPOCH":"2026-03-31T06:00:02.000160","MEAN_MOTION":15.97414362,"ECCENTRICITY":0.00015637,"INCLINATION":97.2765,"RA_OF_ASC_NODE":213.5957,"ARG_OF_PERICENTER":53.5976,"MEAN_ANOMALY":77.8826,"EPHEMERIS_TYPE":0,"CLASSIFICATION_TYPE":"U","NORAD_CAT_ID":68309,"ELEMENT_SET_NO":999,"REV_AT_EPOCH":261,"BSTAR":-0.0031028918,"MEAN_MOTION_DOT":-0.01353688,"MEAN_MOTION_DDOT":0.00055801073},{"OBJECT_NAME":"STARLINK-37148","OBJECT_ID":"2026-057S","EPOCH":"2026-03-31T06:00:02.000160","MEAN_MOTION":15.97600849,"ECCENTRICITY":0.00016236,"INCLINATION":97.2764,"RA_OF_ASC_NODE":213.5989,"ARG_OF_PERICENTER":54.4047,"MEAN_ANOMALY":84.1541,"EPHEMERIS_TYPE":0,"CLASSIFICATION_TYPE":"U","NORAD_CAT_ID":68310,"ELEMENT_SET_NO":999,"REV_AT_EPOCH":272,"BSTAR":-0.0030939864,"MEAN_MOTION_DOT":-0.01363569,"MEAN_MOTION_DDOT":0.00056670921},{"OBJECT_NAME":"STARLINK-37140","OBJECT_ID":"2026-057T","EPOCH":"2026-03-31T06:00:02.000160","MEAN_MOTION":15.97512,"ECCENTRICITY":0.00016845,"INCLINATION":97.2766,"RA_OF_ASC_NODE":213.5978,"ARG_OF_PERICENTER":56.6401,"MEAN_ANOMALY":78.5686,"EPHEMERIS_TYPE":0,"CLASSIFICATION_TYPE":"U","NORAD_CAT_ID":68311,"ELEMENT_SET_NO":999,"REV_AT_EPOCH":288,"BSTAR":-0.0031196789,"MEAN_MOTION_DOT":-0.01368179,"MEAN_MOTION_DDOT":0.0005697129},{"OBJECT_NAME":"STARLINK-36854","OBJECT_ID":"2026-057U","EPOCH":"2026-03-31T06:00:02.000160","MEAN_MOTION":15.97694274,"ECCENTRICITY":0.00015636,"INCLINATION":97.2763,"RA_OF_ASC_NODE":213.6008,"ARG_OF_PERICENTER":59.0586,"MEAN_ANOMALY":82.7513,"EPHEMERIS_TYPE":0,"CLASSIFICATION_TYPE":"U","NORAD_CAT_ID":68312,"ELEMENT_SET_NO":999,"REV_AT_EPOCH":267,"BSTAR":-0.003072499,"MEAN_MOTION_DOT":-0.01361071,"MEAN_MOTION_DDOT":0.0005653583},{"OBJECT_NAME":"STARLINK-36815","OBJECT_ID":"2026-057V","EPOCH":"2026-03-31T06:00:02.000160","MEAN_MOTION":15.97791814,"ECCENTRICITY":0.00015982,"INCLINATION":97.2764,"RA_OF_ASC_NODE":213.6024,"ARG_OF_PERICENTER":61.8105,"MEAN_ANOMALY":83.8588,"EPHEMERIS_TYPE":0,"CLASSIFICATION_TYPE":"U","NORAD_CAT_ID":68313,"ELEMENT_SET_NO":999,"REV_AT_EPOCH":267,"BSTAR":-0.0030872451,"MEAN_MOTION_DOT":-0.0137481,"MEAN_MOTION_DDOT":0.0005765724},{"OBJECT_NAME":"STARLINK-37155","OBJECT_ID":"2026-057W","EPOCH":"2026-03-31T06:00:02.000160","MEAN_MOTION":15.97979302,"ECCENTRICITY":0.00017002,"INCLINATION":97.2758,"RA_OF_ASC_NODE":213.6058,"ARG_OF_PERICENTER":55.39,"MEAN_ANOMALY":98.3143,"EPHEMERIS_TYPE":0,"CLASSIFICATION_TYPE":"U","NORAD_CAT_ID":68314,"ELEMENT_SET_NO":999,"REV_AT_EPOCH":272,"BSTAR":-0.0030532466,"MEAN_MOTION_DOT":-0.01373806,"MEAN_MOTION_DDOT":0.00057696573},{"OBJECT_NAME":"STARLINK-37150","OBJECT_ID":"2026-057X","EPOCH":"2026-03-31T06:00:02.000160","MEAN_MOTION":15.97878111,"ECCENTRICITY":0.00015025,"INCLINATION":97.276,"RA_OF_ASC_NODE":213.6041,"ARG_OF_PERICENTER":59.9652,"MEAN_ANOMALY":89.9912,"EPHEMERIS_TYPE":0,"CLASSIFICATION_TYPE":"U","NORAD_CAT_ID":68315,"ELEMENT_SET_NO":999,"REV_AT_EPOCH":272,"BSTAR":-0.0030513685,"MEAN_MOTION_DOT":-0.01365377,"MEAN_MOTION_DDOT":0.00056980443},{"OBJECT_NAME":"STARLINK-37154","OBJECT_ID":"2026-057Y","EPOCH":"2026-03-31T06:00:02.000160","MEAN_MOTION":15.98184273,"ECCENTRICITY":0.00015665,"INCLINATION":97.2753,"RA_OF_ASC_NODE":213.6094,"ARG_OF_PERICENTER":62.1172,"MEAN_ANOMALY":99.7543,"EPHEMERIS_TYPE":0,"CLASSIFICATION_TYPE":"U","NORAD_CAT_ID":68316,"ELEMENT_SET_NO":999,"REV_AT_EPOCH":262,"BSTAR":-0.0030457402,"MEAN_MOTION_DOT":-0.01385844,"MEAN_MOTION_DDOT":0.00058766582},{"OBJECT_NAME":"STARLINK-37139","OBJECT_ID":"2026-057Z","EPOCH":"2026-03-31T06:00:02.000160","MEAN_MOTION":15.98070189,"ECCENTRICITY":0.00016788,"INCLINATION":97.2754,"RA_OF_ASC_NODE":213.6075,"ARG_OF_PERICENTER":56.6471,"MEAN_ANOMALY":101.1895,"EPHEMERIS_TYPE":0,"CLASSIFICATION_TYPE":"U","NORAD_CAT_ID":68317,"ELEMENT_SET_NO":999,"REV_AT_EPOCH":247,"BSTAR":-0.0030237927,"MEAN_MOTION_DOT":-0.01367449,"MEAN_MOTION_DDOT":0.00057259905},{"OBJECT_NAME":"STARLINK-37113","OBJECT_ID":"2026-057AA","EPOCH":"2026-03-31T06:00:02.000160","MEAN_MOTION":15.98290131,"ECCENTRICITY":0.00015848,"INCLINATION":97.2752,"RA_OF_ASC_NODE":213.6111,"ARG_OF_PERICENTER":62.8774,"MEAN_ANOMALY":103.2315,"EPHEMERIS_TYPE":0,"CLASSIFICATION_TYPE":"U","NORAD_CAT_ID":68318,"ELEMENT_SET_NO":999,"REV_AT_EPOCH":272,"BSTAR":-0.0030352758,"MEAN_MOTION_DOT":-0.01389154,"MEAN_MOTION_DDOT":0.00059094782},{"OBJECT_NAME":"PROGRESS-MS 33","OBJECT_ID":"2026-058A","EPOCH":"2026-03-31T03:11:39.798528","MEAN_MOTION":15.48671303,"ECCENTRICITY":0.00062028,"INCLINATION":51.6341,"RA_OF_ASC_NODE":326.3497,"ARG_OF_PERICENTER":253.7499,"MEAN_ANOMALY":106.2807,"EPHEMERIS_TYPE":0,"CLASSIFICATION_TYPE":"U","NORAD_CAT_ID":68319,"ELEMENT_SET_NO":999,"REV_AT_EPOCH":70,"BSTAR":0.00021776695,"MEAN_MOTION_DOT":0.00011434,"MEAN_MOTION_DDOT":0},{"OBJECT_NAME":"CENTISPACE-1 OBJECT A","OBJECT_ID":"2026-060A","EPOCH":"2026-03-31T05:51:23.530176","MEAN_MOTION":14.74882696,"ECCENTRICITY":0.00129615,"INCLINATION":54.9827,"RA_OF_ASC_NODE":353.6926,"ARG_OF_PERICENTER":314.4386,"MEAN_ANOMALY":45.5552,"EPHEMERIS_TYPE":0,"CLASSIFICATION_TYPE":"U","NORAD_CAT_ID":68350,"ELEMENT_SET_NO":999,"REV_AT_EPOCH":127,"BSTAR":0.00020616994,"MEAN_MOTION_DOT":1.186e-5,"MEAN_MOTION_DDOT":0}]
