STARLINK-36277          
1 68305U 26057M   26090.25002315 -.01359028  56054-3 -31593-2 0  9993
2 68305  97.2775 213.5920 0001665  56.1223  64.8219 15.97157187  2834
STARLINK-36307          
1 68306U 26057N   26090.25002315 -.01348460  55201-3 -31488-2 0  9998
2 68306  97.2780 213.5905 0001521  54.5941  62.2011 15.97074107  2779
STARLINK-36264          
1 68307U 26057P   26090.25002315 -.01365713  56617-3 -31601-2 0  9998
2 68307  97.2777 213.5941 0001696  56.2439  69.1118 15.97243061  2838
STARLINK-37138          
1 68308U 26057Q   26090.25002315 -.01356893  55994-3 -31250-2 0  9995
2 68308  97.2771 213.5936 0001618  53.9187  74.1579 15.97327935  2509
STARLINK-37149          
1 68309U 26057R   26090.25002315 -.01353688  55801-3 -31029-2 0  9996
2 68309  97.2765 213.5957 0001563  53.5976  77.8826 15.97414362  2615
STARLINK-37148          
1 68310U 26057S   26090.25002315 -.01363569  56671-3 -30940-2 0  9994
2 68310  97.2764 213.5989 0001623  54.4047  84.1541 15.97600849  2721
STARLINK-37140          
1 68311U 26057T   26090.25002315 -.01368179  56971-3 -31197-2 0  9995
2 68311  97.2766 213.5978 0001684  56.6401  78.5686 15.97512000  2882
STARLINK-36854          
1 68312U 26057U   26090.25002315 -.01361071  56536-3 -30725-2 0  9993
2 68312  97.2763 213.6008 0001563  59.0586  82.7513 15.97694274  2679
STARLINK-36815          
1 68313U 26057V   26090.25002315 -.01374810  57657-3 -30872-2 0  9997
2 68313  97.2764 213.6024 0001598  61.8105  83.8588 15.97791814  2677
STARLINK-37155          
1 68314U 26057W   26090.25002315 -.01373806  57697-3 -30532-2 0  9999
2 68314  97.2758 213.6058 0001700  55.3900  98.3143 15.97979302  2728
STARLINK-37150          
1 68315U 26057X   26090.25002315 -.01365377  56980-3 -30514-2 0  9998
2 68315  97.2760 213.6041 0001502  59.9652  89.9912 15.97878111  2724
STARLINK-37154          
1 68316U 26057Y   26090.25002315 -.01385844  58767-3 -30457-2 0  9991
2 68316  97.2753 213.6094 0001566  62.1172  99.7543 15.98184273  2626
STARLINK-37139          
1 68317U 26057Z   26090.25002315 -.01367449  57260-3 -30238-2 0  9997
2 68317  97.2754 213.6075 0001678  56.6471 101.1895 15.98070189  2472
STARLINK-37113          
1 68318U 26057AA  26090.25002315 -.01389154  59095-3 -30353-2 0  9991
2 68318  97.2752 213.6111 0001584  62.8774 103.2315 15.98290131  2722
PROGRESS-MS 33          
1 68319U 26058A   26090.13309952  .00011434  00000+0  21777-3 0  9996
2 68319  51.6341 326.3497 0006202 253.7499 106.2807 15.48671303   701
CENTISPACE-1 OBJECT A   
1 68350U 26060A   26090.24402234  .00001186  00000+0  20617-3 0  9998
2 68350  54.9827 353.6926 0012961 314.4386  45.5552 14.74882696  1272
